NORAD_CAT_ID,OBJECT_NAME,OBJECT_TYPE,EPOCH,MEAN_MOTION,ECCENTRICITY,INCLINATION,RA_OF_ASC_NODE,ARG_OF_PERICENTER,MEAN_ANOMALY,BSTAR,MEAN_MOTION_DOT,MEAN_MOTION_DDOT,TLE_LINE0,TLE_LINE1,TLE_LINE2,SEMIMAJOR_AXIS,PERIOD,APOGEE,PERIGEE,DECAYED
51118.0,STARLINK-3394,PAYLOAD,2022-01-24 16:00:00,15.94232871,0.0053094,53.2185,247.5789,184.3549,34.4901,-0.0017378,-0.00768647,0.0001948,0 STARLINK-3394,1 51118U 22005Q   22024.66667824 -.00768647  19480-3 -17378-2 0  9993,2 51118  53.2185 247.5789 0053094 184.3549  34.4901 15.94232871  2194,6668.59,90.326,325.861,255.049,0.0
51118.0,STARLINK-3394,PAYLOAD,2022-01-24 22:00:00,15.93849641,0.0050938999999999,53.2176,246.3049,184.6133,29.7211,-0.0020214,-0.00864098,0.00023943,0 STARLINK-3394,1 51118U 22005Q   22024.91667824 -.00864098  23943-3 -20214-2 0  9990,2 51118  53.2176 246.3049 0050939 184.6133  29.7211 15.93849641  2220,6669.659000000002,90.347,325.498,257.54900000000004,0.0
51118.0,STARLINK-3394,PAYLOAD,2022-01-25 06:00:00,15.93287517,0.0049074,53.2173,244.6041,186.1186,141.6137,-0.0022252,-0.00912711,0.00026278,0 STARLINK-3394,1 51118U 22005Q   22025.25001157 -.00912711  26278-3 -22252-2 0  9993,2 51118  53.2173 244.6041 0049074 186.1186 141.6137 15.93287517  2288,6671.227,90.379,325.831,260.35400000000004,0.0
51118.0,STARLINK-3394,PAYLOAD,2022-01-25 14:00:01,15.92698485,0.0045685,53.2174,242.9045,188.1003,252.3351,-0.0023149,-0.00904737,0.00025715,0 STARLINK-3394,1 51118U 22005Q   22025.58334491 -.00904737  25715-3 -23149-2 0  9999,2 51118  53.2174 242.9045 0045685 188.1003 252.3351 15.92698485  2331,6672.871999999999,90.413,325.222,264.252,0.0
51118.0,STARLINK-3394,PAYLOAD,2022-01-25 22:00:00,15.92094561,0.0042258,53.2174,241.2098,190.2281,2.2105,-0.0023298,-0.0086863,0.00023753,0 STARLINK-3394,1 51118U 22005Q   22025.91667824 -.00868630  23753-3 -23298-2 0  9991,2 51118  53.2174 241.2098 0042258 190.2281   2.2105 15.92094561  2385,6674.559,90.447,324.63,268.219,0.0
51118.0,STARLINK-3394,PAYLOAD,2022-01-26 06:00:00,15.91525656,0.0040068,53.2175,239.5133,191.0942,112.6327,-0.0025219,-0.00903758,0.00025372,0 STARLINK-3394,1 51118U 22005Q   22026.25001157 -.00903758  25372-3 -25219-2 0  9995,2 51118  53.2175 239.5133 0040068 191.0942 112.6327 15.91525656  2448,6676.15,90.479,324.765,271.265,0.0
51118.0,STARLINK-3394,PAYLOAD,2022-01-26 14:00:01,15.90946037,0.0037136,53.2177,237.8182,194.0351,220.2795,-0.002664,-0.00915773,0.00025839,0 STARLINK-3394,1 51118U 22005Q   22026.58334491 -.00915773  25839-3 -26640-2 0  9998,2 51118  53.2177 237.8182 0037136 194.0351 220.2795 15.90946037  2493,6677.771,90.512,324.435,274.838,0.0
51118.0,STARLINK-3394,PAYLOAD,2022-01-26 22:00:00,15.90341785,0.0033986,53.2176,236.1279,196.7775,327.4278,-0.0026642,-0.00878373,0.00023828,0 STARLINK-3394,1 51118U 22005Q   22026.91667824 -.00878373  23828-3 -26642-2 0  9996,2 51118  53.2176 236.1279 0033986 196.7775 327.4278 15.90341785  2540,6679.4630000000025,90.547,324.029,278.627,0.0
51118.0,STARLINK-3394,PAYLOAD,2022-01-27 04:00:00,15.89904979,0.0032333,53.2172,234.8589,198.693,317.4641,-0.0027584,-0.00884481,0.00024027,0 STARLINK-3394,1 51118U 22005Q   22027.16667824 -.00884481  24027-3 -27584-2 0  9999,2 51118  53.2172 234.8589 0032333 198.6930 317.4641 15.89904979  2589,6680.686,90.571,324.152,280.95,0.0
51118.0,STARLINK-3394,PAYLOAD,2022-01-27 14:00:01,15.89190826,0.0029039,53.2176,232.745,201.1575,180.7007,-0.0030098,-0.00921427,0.00025694,0 STARLINK-3394,1 51118U 22005Q   22027.58334491 -.00921427  25694-3 -30098-2 0  9993,2 51118  53.2176 232.7450 0029039 201.1575 180.7007 15.89190826  1798,6682.687,90.612,323.958,285.146,0.0
51118.0,STARLINK-3394,PAYLOAD,2022-01-27 19:56:47,15.88905841,0.0029394,53.2247,231.4963,205.6456,154.3115,-0.00059198,-0.00182084,2.1366e-05,0 STARLINK-3394,1 51118U 22005Q   22027.83110850 -.00182084  21366-4 -59198-3 0  9996,2 51118  53.2247 231.4963 0029394 205.6456 154.3115 15.88905841  2690,6683.486,90.628,324.997,285.706,0.0
51118.0,STARLINK-3394,PAYLOAD,2022-01-28 06:00:02,15.88000571,0.0023917,53.2175,229.3707,208.6215,28.1518,-0.0031019,-0.0088367999999999,0.00023561,0 STARLINK-3394,1 51118U 22005Q   22028.25002315 -.00883680  23561-3 -31019-2 0  9998,2 51118  53.2175 229.3707 0023917 208.6215  28.1518 15.88000571  2762,6686.026,90.68,323.882,291.9,0.0
51118.0,STARLINK-3394,PAYLOAD,2022-01-28 10:00:00,15.87717282,0.0022312,53.2173,228.5272,210.8171,259.1574,-0.0032271,-0.00903298,0.00024449,0 STARLINK-3394,1 51118U 22005Q   22028.41667824 -.00903298  24449-3 -32271-2 0  9993,2 51118  53.2173 228.5272 0022312 210.8171 259.1574 15.87717282  2785,6686.821,90.696,323.606,293.767,0.0
51118.0,STARLINK-3394,PAYLOAD,2022-01-28 12:00:00,15.87558087,0.0021837,53.2173,228.1057,211.0045,15.544,-0.0031606,-0.0087711,0.00023151,0 STARLINK-3394,1 51118U 22005Q   22028.50001157 -.00877110  23151-3 -31606-2 0  9997,2 51118  53.2173 228.1057 0021837 211.0045  15.5440 15.87558087  1934,6687.268,90.705,323.736,294.53,0.0
51118.0,STARLINK-3394,PAYLOAD,2022-01-28 20:00:01,15.86990249,0.0019095,53.2173,226.4237,216.6648,115.7135,-0.0034096,-0.00915141,0.00024863,0 STARLINK-3394,1 51118U 22005Q   22028.83334491 -.00915141  24863-3 -34096-2 0  9997,2 51118  53.2173 226.4237 0019095 216.6648 115.7135 15.86990249  2853,6688.864000000001,90.738,323.501,297.956,0.0
51118.0,STARLINK-3394,PAYLOAD,2022-01-28 22:00:00,15.86842689,0.001846,53.2175,226.0033,217.8346,230.8929,-0.0034271,-0.00912256,0.00024688,0 STARLINK-3394,1 51118U 22005Q   22028.91667824 -.00912256  24688-3 -34271-2 0  9999,2 51118  53.2175 226.0033 0018460 217.8346 230.8929 15.86842689  2009,6689.278,90.746,323.492,298.795,0.0
51118.0,STARLINK-3394,PAYLOAD,2022-01-29 14:00:01,15.85665579,0.0014411,53.2178,222.6379,228.2946,69.6461,-0.0036023,-0.00823989,0.0,0 STARLINK-3394,1 51118U 22005Q   22029.58334491 -.00823989  00000-0 -36023-2 0  9994,2 51118  53.2178 222.6379 0014411 228.2946  69.6461 15.85665579  2976,6692.5880000000025,90.814,324.098,304.809,0.0
51118.0,STARLINK-3394,PAYLOAD,2022-01-29 22:00:00,15.85089963,0.0012179,53.2176,220.9605,239.4656,162.0196,-0.0038086,-0.00842565,0.0,0 STARLINK-3394,1 51118U 22005Q   22029.91667824 -.00842565  00000-0 -38086-2 0  9992,2 51118  53.2176 220.9605 0012179 239.4656 162.0196 15.85089963  2169,6694.208000000001,90.847,324.226,307.921,0.0
51118.0,STARLINK-3394,PAYLOAD,2022-01-30 06:00:00,15.84491777,0.0010684,53.2174,219.2807,248.4705,255.865,-0.0038147,-0.00820248,0.0,0 STARLINK-3394,1 51118U 22005Q   22030.25001157 -.00820248  00000-0 -38147-2 0  9994,2 51118  53.2174 219.2807 0010684 248.4705 255.8650 15.84491777  3072,6695.893,90.881,324.9120000000001,310.6040000000001,0.0
51118.0,STARLINK-3394,PAYLOAD,2022-01-30 14:00:01,15.83898965,0.0008824,53.2175,217.604,261.2075,345.2711,-0.0038625,-0.00806698,0.0,0 STARLINK-3394,1 51118U 22005Q   22030.58334491 -.00806698  00000-0 -38625-2 0  9994,2 51118  53.2175 217.6040 0008824 261.2075 345.2711 15.83898965  2272,6697.564,90.915,325.339,313.519,0.0
51118.0,STARLINK-3394,PAYLOAD,2022-01-30 22:00:00,15.83316637,0.0006864,53.2175,215.9308,269.0972,78.8161,-0.0040133,-0.00813059,0.0,0 STARLINK-3394,1 51118U 22005Q   22030.91667824 -.00813059  00000-0 -40133-2 0  9996,2 51118  53.2175 215.9308 0006864 269.0972  78.8161 15.83316637  2329,6699.206,90.948,325.6690000000001,316.473,0.0
51118.0,STARLINK-3394,PAYLOAD,2022-01-31 06:00:00,15.82698223,0.0004169,53.2188,214.2572,274.4363,174.2298,-0.0039367,-0.00776168,0.0,0 STARLINK-3394,1 51118U 22005Q   22031.25001157 -.00776168  00000-0 -39367-2 0  9991,2 51118  53.2188 214.2572 0004169 274.4363 174.2298 15.82698223  3234,6700.951,90.984,325.6090000000001,320.022,0.0
51118.0,STARLINK-3394,PAYLOAD,2022-01-31 14:00:01,15.8215041,0.0001548,53.2178,212.5829,284.8259,263.9141,-0.0043027,-0.00821206,0.0,0 STARLINK-3394,1 51118U 22005Q   22031.58335648 -.00821206  00000-0 -43027-2 0  9994,2 51118  53.2178 212.5829 0001548 284.8259 263.9141 15.82150410  2431,6702.498000000001,91.015,325.4,323.325,0.0
51118.0,STARLINK-3394,PAYLOAD,2022-01-31 22:00:01,15.81558617,4.19e-05,53.2175,210.9141,57.3466,230.7194,-0.0043641,-0.00810733,0.0,0 STARLINK-3394,1 51118U 22005Q   22031.91668981 -.00810733  00000-0 -43641-2 0  9995,2 51118  53.2175 210.9141 0000419  57.3466 230.7194 15.81558617  3347,6704.169,91.049,326.315,325.753,0.0
51118.0,STARLINK-3394,PAYLOAD,2022-02-01 12:00:00,15.80539567,0.0001085999999999,53.2175,207.9913,62.464,307.6587,-0.0046348,-0.00820366,0.0,0 STARLINK-3394,1 51118U 22005Q   22032.50001157 -.00820366  00000-0 -46348-2 0  9997,2 51118  53.2175 207.9913 0001086  62.4640 307.6587 15.80539567  3434,6707.051,91.108,329.644,328.1869999999999,0.0
51118.0,STARLINK-3394,PAYLOAD,2022-02-01 14:00:01,15.80391876,0.0001214,53.2175,207.575,57.7759,66.8262,-0.0046571999999999,-0.00818895,0.0,0 STARLINK-3394,1 51118U 22005Q   22032.58335648 -.00818895  00000-0 -46572-2 0  9993,2 51118  53.2175 207.5750 0001214  57.7759  66.8262 15.80391876  2599,6707.469,91.117,330.148,328.519,0.0
51118.0,STARLINK-3394,PAYLOAD,2022-02-01 22:00:00,15.79803183,0.0001132,53.2176,205.9102,84.4277,137.321,-0.004755,-0.00814116,0.0,0 STARLINK-3394,1 51118U 22005Q   22032.91667824 -.00814116  00000-0 -47550-2 0  9993,2 51118  53.2176 205.9102 0001132  84.4277 137.3210 15.79803183  2644,6709.135,91.151,331.759,330.24,0.0
51118.0,STARLINK-3394,PAYLOAD,2022-02-02 14:00:01,15.78636988,0.0001162,53.2176,202.5802,52.5428,1.5177,-0.0050766,-0.00823148,0.0,0 STARLINK-3394,1 51118U 22005Q   22033.58334491 -.00823148  00000-0 -50766-2 0  9996,2 51118  53.2176 202.5802 0001162  52.5428   1.5177 15.78636988  3608,6712.439,91.218,335.084,333.524,0.0
51118.0,STARLINK-3394,PAYLOAD,2022-02-02 22:00:00,15.78044659,0.000114,53.2172,200.9196,70.0702,79.0919,-0.0051376,-0.00812027,0.0,0 STARLINK-3394,1 51118U 22005Q   22033.91667824 -.00812027  00000-0 -51376-2 0  9994,2 51118  53.2172 200.9196 0001140  70.0702  79.0919 15.78044659  2801,6714.118,91.252,336.749,335.218,0.0
